LEGION 1                
1 59625U 24081A   24151.53872265  .00008095  00000+0  41924-3 0  9997
2 59625  97.5761 222.6321 0004876  82.9022 277.2765 15.16461022  4200
